CCSDS_OMM_VERS = 2.0
CREATION_DATE  = 
ORIGINATOR     = 

OBJECT_NAME    = SL-14 R/B
OBJECT_ID      = 1986-046B
CENTER_NAME    = EARTH
REF_FRAME      = TEME
TIME_SYSTEM    = UTC
MEAN_ELEMENT_THEORY = SGP/SGP4

EPOCH          = 2025-12-12T23:36:56.374848
MEAN_MOTION    = 14.85485120
ECCENTRICITY   = .00238153
INCLINATION    = 82.4810
RA_OF_ASC_NODE = 162.0835
ARG_OF_PERICENTER = 151.4489
MEAN_ANOMALY   = 208.8037

EPHEMERIS_TYPE = 0
CLASSIFICATION_TYPE = U
NORAD_CAT_ID   = 16792
ELEMENT_SET_NO = 999
REV_AT_EPOCH   = 11353
BSTAR          = .935543E-4
MEAN_MOTION_DOT = .835E-5
MEAN_MOTION_DDOT = 0

CCSDS_OMM_VERS = 2.0
CREATION_DATE  = 
ORIGINATOR     = 

OBJECT_NAME    = SL-14 R/B
OBJECT_ID      = 1986-055B
CENTER_NAME    = EARTH
REF_FRAME      = TEME
TIME_SYSTEM    = UTC
MEAN_ELEMENT_THEORY = SGP/SGP4

EPOCH          = 2025-12-13T03:04:11.651232
MEAN_MOTION    = 14.85531545
ECCENTRICITY   = .00174777
INCLINATION    = 82.5202
RA_OF_ASC_NODE = 208.0082
ARG_OF_PERICENTER = 258.0226
MEAN_ANOMALY   = 221.9771

EPHEMERIS_TYPE = 0
CLASSIFICATION_TYPE = U
NORAD_CAT_ID   = 16882
ELEMENT_SET_NO = 999
REV_AT_EPOCH   = 10651
BSTAR          = .79313313E-4
MEAN_MOTION_DOT = .71E-5
MEAN_MOTION_DDOT = 0

CCSDS_OMM_VERS = 2.0
CREATION_DATE  = 
ORIGINATOR     = 

OBJECT_NAME    = AJISAI (EGS)
OBJECT_ID      = 1986-061A
CENTER_NAME    = EARTH
REF_FRAME      = TEME
TIME_SYSTEM    = UTC
MEAN_ELEMENT_THEORY = SGP/SGP4

EPOCH          = 2025-12-13T07:57:46.999872
MEAN_MOTION    = 12.44514287
ECCENTRICITY   = .00112953
INCLINATION    = 50.0113
RA_OF_ASC_NODE = 358.8966
ARG_OF_PERICENTER = 67.4031
MEAN_ANOMALY   = 121.1900

EPHEMERIS_TYPE = 0
CLASSIFICATION_TYPE = U
NORAD_CAT_ID   = 16908
ELEMENT_SET_NO = 999
REV_AT_EPOCH   = 45724
BSTAR          = .62669679E-4
MEAN_MOTION_DOT = -.89E-6
MEAN_MOTION_DDOT = 0

CCSDS_OMM_VERS = 2.0
CREATION_DATE  = 
ORIGINATOR     = 

OBJECT_NAME    = COSMOS 1812
OBJECT_ID      = 1987-003A
CENTER_NAME    = EARTH
REF_FRAME      = TEME
TIME_SYSTEM    = UTC
MEAN_ELEMENT_THEORY = SGP/SGP4

EPOCH          = 2025-12-13T07:14:56.494464
MEAN_MOTION    = 15.75658020
ECCENTRICITY   = .00072186
INCLINATION    = 82.4867
RA_OF_ASC_NODE = 291.4081
ARG_OF_PERICENTER = 87.0596
MEAN_ANOMALY   = 273.1495

EPHEMERIS_TYPE = 0
CLASSIFICATION_TYPE = U
NORAD_CAT_ID   = 17295
ELEMENT_SET_NO = 999
REV_AT_EPOCH   = 13074
BSTAR          = .88143039E-3
MEAN_MOTION_DOT = .136476E-2
MEAN_MOTION_DDOT = 0

CCSDS_OMM_VERS = 2.0
CREATION_DATE  = 
ORIGINATOR     = 

OBJECT_NAME    = SL-14 R/B
OBJECT_ID      = 1987-024B
CENTER_NAME    = EARTH
REF_FRAME      = TEME
TIME_SYSTEM    = UTC
MEAN_ELEMENT_THEORY = SGP/SGP4

EPOCH          = 2025-12-13T06:01:11.850240
MEAN_MOTION    = 14.86024591
ECCENTRICITY   = .00181226
INCLINATION    = 82.5274
RA_OF_ASC_NODE = 173.9743
ARG_OF_PERICENTER = 182.4765
MEAN_ANOMALY   = 177.6365

EPHEMERIS_TYPE = 0
CLASSIFICATION_TYPE = U
NORAD_CAT_ID   = 17567
ELEMENT_SET_NO = 999
REV_AT_EPOCH   = 7529
BSTAR          = .88223525E-4
MEAN_MOTION_DOT = .797E-5
MEAN_MOTION_DDOT = 0

CCSDS_OMM_VERS = 2.0
CREATION_DATE  = 
ORIGINATOR     = 

OBJECT_NAME    = COSMOS 1833
OBJECT_ID      = 1987-027A
CENTER_NAME    = EARTH
REF_FRAME      = TEME
TIME_SYSTEM    = UTC
MEAN_ELEMENT_THEORY = SGP/SGP4

EPOCH          = 2025-12-13T03:25:14.674944
MEAN_MOTION    = 14.13021679
ECCENTRICITY   = .00225479
INCLINATION    = 70.9138
RA_OF_ASC_NODE = 147.9306
ARG_OF_PERICENTER = 331.1639
MEAN_ANOMALY   = 28.8234

EPHEMERIS_TYPE = 0
CLASSIFICATION_TYPE = U
NORAD_CAT_ID   = 17589
ELEMENT_SET_NO = 999
REV_AT_EPOCH   = 99808
BSTAR          = .11795825E-3
MEAN_MOTION_DOT = .172E-5
MEAN_MOTION_DDOT = 0

CCSDS_OMM_VERS = 2.0
CREATION_DATE  = 
ORIGINATOR     = 

OBJECT_NAME    = SL-16 R/B
OBJECT_ID      = 1987-027B
CENTER_NAME    = EARTH
REF_FRAME      = TEME
TIME_SYSTEM    = UTC
MEAN_ELEMENT_THEORY = SGP/SGP4

EPOCH          = 2025-12-13T07:07:02.191296
MEAN_MOTION    = 14.17152248
ECCENTRICITY   = .00073751
INCLINATION    = 71.0029
RA_OF_ASC_NODE = 98.5448
ARG_OF_PERICENTER = 258.7054
MEAN_ANOMALY   = 101.3241

EPHEMERIS_TYPE = 0
CLASSIFICATION_TYPE = U
NORAD_CAT_ID   = 17590
ELEMENT_SET_NO = 999
REV_AT_EPOCH   = 310
BSTAR          = .55070097E-4
MEAN_MOTION_DOT = .63E-6
MEAN_MOTION_DDOT = 0

CCSDS_OMM_VERS = 2.0
CREATION_DATE  = 
ORIGINATOR     = 

OBJECT_NAME    = SL-14 R/B
OBJECT_ID      = 1987-038B
CENTER_NAME    = EARTH
REF_FRAME      = TEME
TIME_SYSTEM    = UTC
MEAN_ELEMENT_THEORY = SGP/SGP4

EPOCH          = 2025-12-13T08:04:01.173216
MEAN_MOTION    = 14.85262230
ECCENTRICITY   = .0020862
INCLINATION    = 82.5017
RA_OF_ASC_NODE = 18.1393
ARG_OF_PERICENTER = 90.1776
MEAN_ANOMALY   = 270.1830

EPHEMERIS_TYPE = 0
CLASSIFICATION_TYPE = U
NORAD_CAT_ID   = 17912
ELEMENT_SET_NO = 999
REV_AT_EPOCH   = 6641
BSTAR          = .77151707E-4
MEAN_MOTION_DOT = .689E-5
MEAN_MOTION_DDOT = 0

CCSDS_OMM_VERS = 2.0
CREATION_DATE  = 
ORIGINATOR     = 

OBJECT_NAME    = COSMOS 1844
OBJECT_ID      = 1987-041A
CENTER_NAME    = EARTH
REF_FRAME      = TEME
TIME_SYSTEM    = UTC
MEAN_ELEMENT_THEORY = SGP/SGP4

EPOCH          = 2025-12-13T01:22:05.094624
MEAN_MOTION    = 14.14526114
ECCENTRICITY   = .00300704
INCLINATION    = 70.8974
RA_OF_ASC_NODE = 216.9026
ARG_OF_PERICENTER = 156.6266
MEAN_ANOMALY   = 203.6230

EPHEMERIS_TYPE = 0
CLASSIFICATION_TYPE = U
NORAD_CAT_ID   = 17973
ELEMENT_SET_NO = 999
REV_AT_EPOCH   = 99133
BSTAR          = .12751291E-4
MEAN_MOTION_DOT = -.24E-6
MEAN_MOTION_DDOT = 0

CCSDS_OMM_VERS = 2.0
CREATION_DATE  = 
ORIGINATOR     = 

OBJECT_NAME    = SL-14 R/B
OBJECT_ID      = 1987-055B
CENTER_NAME    = EARTH
REF_FRAME      = TEME
TIME_SYSTEM    = UTC
MEAN_ELEMENT_THEORY = SGP/SGP4

EPOCH          = 2025-12-13T07:52:09.781536
MEAN_MOTION    = 14.85522626
ECCENTRICITY   = .00193772
INCLINATION    = 82.5001
RA_OF_ASC_NODE = 70.4343
ARG_OF_PERICENTER = 301.2692
MEAN_ANOMALY   = 58.6625

EPHEMERIS_TYPE = 0
CLASSIFICATION_TYPE = U
NORAD_CAT_ID   = 18153
ELEMENT_SET_NO = 999
REV_AT_EPOCH   = 5711
BSTAR          = .89824879E-4
MEAN_MOTION_DOT = .802E-5
MEAN_MOTION_DDOT = 0

CCSDS_OMM_VERS = 2.0
CREATION_DATE  = 
ORIGINATOR     = 

OBJECT_NAME    = COSMOS 1867
OBJECT_ID      = 1987-060A
CENTER_NAME    = EARTH
REF_FRAME      = TEME
TIME_SYSTEM    = UTC
MEAN_ELEMENT_THEORY = SGP/SGP4

EPOCH          = 2025-12-13T07:14:08.653056
MEAN_MOTION    = 14.31486204
ECCENTRICITY   = .00136323
INCLINATION    = 65.0090
RA_OF_ASC_NODE = 188.6297
ARG_OF_PERICENTER = 271.1917
MEAN_ANOMALY   = 88.7606

EPHEMERIS_TYPE = 0
CLASSIFICATION_TYPE = U
NORAD_CAT_ID   = 18187
ELEMENT_SET_NO = 999
REV_AT_EPOCH   = 757
BSTAR          = .37898538E-4
MEAN_MOTION_DOT = .1E-7
MEAN_MOTION_DDOT = 0

CCSDS_OMM_VERS = 2.0
CREATION_DATE  = 
ORIGINATOR     = 

OBJECT_NAME    = SL-14 R/B
OBJECT_ID      = 1988-001B
CENTER_NAME    = EARTH
REF_FRAME      = TEME
TIME_SYSTEM    = UTC
MEAN_ELEMENT_THEORY = SGP/SGP4

EPOCH          = 2025-12-13T07:37:14.135808
MEAN_MOTION    = 14.85425236
ECCENTRICITY   = .00185309
INCLINATION    = 82.5133
RA_OF_ASC_NODE = 276.6037
ARG_OF_PERICENTER = 159.2406
MEAN_ANOMALY   = 200.9567

EPHEMERIS_TYPE = 0
CLASSIFICATION_TYPE = U
NORAD_CAT_ID   = 18749
ELEMENT_SET_NO = 999
REV_AT_EPOCH   = 2920
BSTAR          = .91985063E-4
MEAN_MOTION_DOT = .819E-5
MEAN_MOTION_DDOT = 0

