SL-14 R/B               
1 16792U 86046B   25346.98398582  .00000835  00000+0  93554-4 0  9996
2 16792  82.4810 162.0835 0023815 151.4489 208.8037 14.85485120113535
SL-14 R/B               
1 16882U 86055B   25347.12791263  .00000710  00000+0  79313-4 0  9995
2 16882  82.5202 208.0082 0017477 258.0226 221.9771 14.85531545106510
AJISAI (EGS)            
1 16908U 86061A   25347.33179398 -.00000089  00000+0  62670-4 0  9991
2 16908  50.0113 358.8966 0011295  67.4031 121.1900 12.44514287457244
COSMOS 1812             
1 17295U 87003A   25347.30204276  .00136476  00000+0  88143-3 0  9990
2 17295  82.4867 291.4081 0007218  87.0596 273.1495 15.75658020130744
SL-14 R/B               
1 17567U 87024B   25347.25083160  .00000797  00000+0  88224-4 0  9993
2 17567  82.5274 173.9743 0018122 182.4765 177.6365 14.86024591 75295
COSMOS 1833             
1 17589U 87027A   25347.14253096  .00000172  00000+0  11796-3 0  9991
2 17589  70.9138 147.9306 0022547 331.1639  28.8234 14.13021679998081
SL-16 R/B               
1 17590U 87027B   25347.29655314  .00000063  00000+0  55070-4 0  9991
2 17590  71.0029  98.5448 0007375 258.7054 101.3241 14.17152248  3105
SL-14 R/B               
1 17912U 87038B   25347.33612469  .00000689  00000+0  77152-4 0  9999
2 17912  82.5017  18.1393 0020862  90.1776 270.1830 14.85262230 66419
COSMOS 1844             
1 17973U 87041A   25347.05700341 -.00000024  00000+0  12751-4 0  9994
2 17973  70.8974 216.9026 0030070 156.6266 203.6230 14.14526114991332
SL-14 R/B               
1 18153U 87055B   25347.32789099  .00000802  00000+0  89825-4 0  9996
2 18153  82.5001  70.4343 0019377 301.2692  58.6625 14.85522626 57114
COSMOS 1867             
1 18187U 87060A   25347.30148904  .00000001  00000+0  37899-4 0  9996
2 18187  65.0090 188.6297 0013632 271.1917  88.7606 14.31486204  7578
SL-14 R/B               
1 18749U 88001B   25347.31752472  .00000819  00000+0  91985-4 0  9991
2 18749  82.5133 276.6037 0018530 159.2406 200.9567 14.85425236 29200
